{"fetched_at":"2026-07-13T18:16:35.050Z","source":"https://celestrak.org/NORAD/elements/gp.php?GROUP=qianfan&FORMAT=JSON","constellation":"qianfan","records":[{"OBJECT_NAME":"QIANFAN-116","OBJECT_ID":"2026-075H","EPOCH":"2026-07-13T07:34:55.496640","CLASSIFICATION_TYPE":"U","MEAN_MOTION":13.51014291,"ECCENTRICITY":0.00019006,"INCLINATION":88.9906,"RA_OF_ASC_NODE":318.3119,"ARG_OF_PERICENTER":113.2401,"MEAN_ANOMALY":246.895,"EPHEMERIS_TYPE":0,"NORAD_CAT_ID":68643,"ELEMENT_SET_NO":999,"REV_AT_EPOCH":1333,"BSTAR":0.00008083747,"MEAN_MOTION_DOT":6.4e-7,"MEAN_MOTION_DDOT":0},{"OBJECT_NAME":"QIANFAN-117","OBJECT_ID":"2026-075J","EPOCH":"2026-07-13T07:17:09.376800","CLASSIFICATION_TYPE":"U","MEAN_MOTION":13.51024209,"ECCENTRICITY":0.00020872,"INCLINATION":88.991,"RA_OF_ASC_NODE":318.3302,"ARG_OF_PERICENTER":110.4012,"MEAN_ANOMALY":249.7364,"EPHEMERIS_TYPE":0,"NORAD_CAT_ID":68644,"ELEMENT_SET_NO":999,"REV_AT_EPOCH":1333,"BSTAR":0.00010026697,"MEAN_MOTION_DOT":7.7e-7,"MEAN_MOTION_DDOT":0},{"OBJECT_NAME":"QIANFAN-118","OBJECT_ID":"2026-075K","EPOCH":"2026-07-13T06:17:53.960640","CLASSIFICATION_TYPE":"U","MEAN_MOTION":13.51013757,"ECCENTRICITY":0.00018462,"INCLINATION":88.9913,"RA_OF_ASC_NODE":318.3435,"ARG_OF_PERICENTER":99.8618,"MEAN_ANOMALY":260.2741,"EPHEMERIS_TYPE":0,"NORAD_CAT_ID":68645,"ELEMENT_SET_NO":999,"REV_AT_EPOCH":1332,"BSTAR":-0.00015507577,"MEAN_MOTION_DOT":-8.8e-7,"MEAN_MOTION_DDOT":0},{"OBJECT_NAME":"QIANFAN-119","OBJECT_ID":"2026-075L","EPOCH":"2026-07-13T07:29:04.827552","CLASSIFICATION_TYPE":"U","MEAN_MOTION":13.51020383,"ECCENTRICITY":0.0002182,"INCLINATION":88.9915,"RA_OF_ASC_NODE":318.3341,"ARG_OF_PERICENTER":112.6087,"MEAN_ANOMALY":247.5295,"EPHEMERIS_TYPE":0,"NORAD_CAT_ID":68646,"ELEMENT_SET_NO":999,"REV_AT_EPOCH":1333,"BSTAR":0.000082602658,"MEAN_MOTION_DOT":6.5e-7,"MEAN_MOTION_DDOT":0},{"OBJECT_NAME":"QIANFAN-120","OBJECT_ID":"2026-075M","EPOCH":"2026-07-13T07:47:01.108896","CLASSIFICATION_TYPE":"U","MEAN_MOTION":13.51020786,"ECCENTRICITY":0.0002337,"INCLINATION":88.9917,"RA_OF_ASC_NODE":318.3183,"ARG_OF_PERICENTER":113.2231,"MEAN_ANOMALY":246.9167,"EPHEMERIS_TYPE":0,"NORAD_CAT_ID":68647,"ELEMENT_SET_NO":999,"REV_AT_EPOCH":1334,"BSTAR":0.000074904896,"MEAN_MOTION_DOT":6e-7,"MEAN_MOTION_DDOT":0},{"OBJECT_NAME":"QIANFAN-121","OBJECT_ID":"2026-075N","EPOCH":"2026-07-13T06:35:43.132128","CLASSIFICATION_TYPE":"U","MEAN_MOTION":13.51012875,"ECCENTRICITY":0.00020326,"INCLINATION":88.9914,"RA_OF_ASC_NODE":318.3277,"ARG_OF_PERICENTER":101.6761,"MEAN_ANOMALY":258.4618,"EPHEMERIS_TYPE":0,"NORAD_CAT_ID":68648,"ELEMENT_SET_NO":999,"REV_AT_EPOCH":1333,"BSTAR":0.000081685713,"MEAN_MOTION_DOT":6.5e-7,"MEAN_MOTION_DDOT":0},{"OBJECT_NAME":"QIANFAN-122","OBJECT_ID":"2026-075P","EPOCH":"2026-07-13T06:24:02.968128","CLASSIFICATION_TYPE":"U","MEAN_MOTION":13.51016556,"ECCENTRICITY":0.00020999,"INCLINATION":88.9913,"RA_OF_ASC_NODE":318.3264,"ARG_OF_PERICENTER":112.8097,"MEAN_ANOMALY":247.3276,"EPHEMERIS_TYPE":0,"NORAD_CAT_ID":68649,"ELEMENT_SET_NO":999,"REV_AT_EPOCH":1332,"BSTAR":0.000092250729,"MEAN_MOTION_DOT":7.2e-7,"MEAN_MOTION_DDOT":0},{"OBJECT_NAME":"QIANFAN-123","OBJECT_ID":"2026-075Q","EPOCH":"2026-07-13T07:23:21.298560","CLASSIFICATION_TYPE":"U","MEAN_MOTION":13.51014952,"ECCENTRICITY":0.00021877,"INCLINATION":88.991,"RA_OF_ASC_NODE":318.3114,"ARG_OF_PERICENTER":118.0408,"MEAN_ANOMALY":242.0965,"EPHEMERIS_TYPE":0,"NORAD_CAT_ID":68650,"ELEMENT_SET_NO":999,"REV_AT_EPOCH":1331,"BSTAR":0.000086441782,"MEAN_MOTION_DOT":6.8e-7,"MEAN_MOTION_DDOT":0},{"OBJECT_NAME":"QIANFAN-124","OBJECT_ID":"2026-075R","EPOCH":"2026-07-13T07:58:51.407616","CLASSIFICATION_TYPE":"U","MEAN_MOTION":13.51016101,"ECCENTRICITY":0.00021055,"INCLINATION":88.9913,"RA_OF_ASC_NODE":318.3185,"ARG_OF_PERICENTER":114.6626,"MEAN_ANOMALY":245.4745,"EPHEMERIS_TYPE":0,"NORAD_CAT_ID":68651,"ELEMENT_SET_NO":999,"REV_AT_EPOCH":1334,"BSTAR":0.000077570042,"MEAN_MOTION_DOT":6.2e-7,"MEAN_MOTION_DDOT":0},{"OBJECT_NAME":"QIANFAN-125","OBJECT_ID":"2026-075S","EPOCH":"2026-07-13T06:29:48.260544","CLASSIFICATION_TYPE":"U","MEAN_MOTION":13.51013088,"ECCENTRICITY":0.00020035,"INCLINATION":88.9912,"RA_OF_ASC_NODE":318.3269,"ARG_OF_PERICENTER":101.8122,"MEAN_ANOMALY":258.3254,"EPHEMERIS_TYPE":0,"NORAD_CAT_ID":68652,"ELEMENT_SET_NO":999,"REV_AT_EPOCH":1333,"BSTAR":0.0000870008,"MEAN_MOTION_DOT":6.8e-7,"MEAN_MOTION_DDOT":0},{"OBJECT_NAME":"QIANFAN-126","OBJECT_ID":"2026-075T","EPOCH":"2026-07-13T06:41:46.532256","CLASSIFICATION_TYPE":"U","MEAN_MOTION":13.51018174,"ECCENTRICITY":0.00022082,"INCLINATION":88.9916,"RA_OF_ASC_NODE":318.2927,"ARG_OF_PERICENTER":117.6886,"MEAN_ANOMALY":242.4489,"EPHEMERIS_TYPE":0,"NORAD_CAT_ID":68653,"ELEMENT_SET_NO":999,"REV_AT_EPOCH":1335,"BSTAR":0.000063308798,"MEAN_MOTION_DOT":5.3e-7,"MEAN_MOTION_DDOT":0},{"OBJECT_NAME":"QIANFAN-127","OBJECT_ID":"2026-104A","EPOCH":"2026-07-12T21:10:15.606912","CLASSIFICATION_TYPE":"U","MEAN_MOTION":13.5364908,"ECCENTRICITY":0.00056692,"INCLINATION":88.9907,"RA_OF_ASC_NODE":338.8488,"ARG_OF_PERICENTER":1.78,"MEAN_ANOMALY":358.3372,"EPHEMERIS_TYPE":0,"NORAD_CAT_ID":69073,"ELEMENT_SET_NO":999,"REV_AT_EPOCH":862,"BSTAR":-2.6017124,"MEAN_MOTION_DOT":-0.01646371,"MEAN_MOTION_DDOT":0},{"OBJECT_NAME":"QIANFAN-128","OBJECT_ID":"2026-104B","EPOCH":"2026-07-12T22:33:39.869856","CLASSIFICATION_TYPE":"U","MEAN_MOTION":13.57830175,"ECCENTRICITY":0.00096211,"INCLINATION":88.9891,"RA_OF_ASC_NODE":338.8756,"ARG_OF_PERICENTER":17.0791,"MEAN_ANOMALY":343.0686,"EPHEMERIS_TYPE":0,"NORAD_CAT_ID":69074,"ELEMENT_SET_NO":999,"REV_AT_EPOCH":861,"BSTAR":-0.000002350166,"MEAN_MOTION_DOT":1.1e-7,"MEAN_MOTION_DDOT":0},{"OBJECT_NAME":"QIANFAN-129","OBJECT_ID":"2026-104C","EPOCH":"2026-07-12T20:38:34.417248","CLASSIFICATION_TYPE":"U","MEAN_MOTION":13.53627086,"ECCENTRICITY":0.00060005,"INCLINATION":88.9894,"RA_OF_ASC_NODE":338.8264,"ARG_OF_PERICENTER":33.3975,"MEAN_ANOMALY":326.7555,"EPHEMERIS_TYPE":0,"NORAD_CAT_ID":69075,"ELEMENT_SET_NO":999,"REV_AT_EPOCH":863,"BSTAR":-2.6797284,"MEAN_MOTION_DOT":-0.0169225,"MEAN_MOTION_DDOT":0},{"OBJECT_NAME":"QIANFAN-130","OBJECT_ID":"2026-104D","EPOCH":"2026-07-12T21:51:05.649984","CLASSIFICATION_TYPE":"U","MEAN_MOTION":13.49085007,"ECCENTRICITY":0.00131369,"INCLINATION":88.9895,"RA_OF_ASC_NODE":338.8718,"ARG_OF_PERICENTER":7.7126,"MEAN_ANOMALY":352.4223,"EPHEMERIS_TYPE":0,"NORAD_CAT_ID":69076,"ELEMENT_SET_NO":999,"REV_AT_EPOCH":861,"BSTAR":-3.1108087,"MEAN_MOTION_DOT":-0.01821503,"MEAN_MOTION_DDOT":0},{"OBJECT_NAME":"QIANFAN-131","OBJECT_ID":"2026-104E","EPOCH":"2026-07-12T21:37:11.962560","CLASSIFICATION_TYPE":"U","MEAN_MOTION":13.53224674,"ECCENTRICITY":0.00101188,"INCLINATION":88.9877,"RA_OF_ASC_NODE":338.8489,"ARG_OF_PERICENTER":51.1581,"MEAN_ANOMALY":309.0473,"EPHEMERIS_TYPE":0,"NORAD_CAT_ID":69077,"ELEMENT_SET_NO":999,"REV_AT_EPOCH":862,"BSTAR":-2.6429339,"MEAN_MOTION_DOT":-0.01660786,"MEAN_MOTION_DDOT":0},{"OBJECT_NAME":"QIANFAN-132","OBJECT_ID":"2026-104F","EPOCH":"2026-07-12T22:04:08.450400","CLASSIFICATION_TYPE":"U","MEAN_MOTION":13.51152113,"ECCENTRICITY":0.00110323,"INCLINATION":88.9888,"RA_OF_ASC_NODE":338.8906,"ARG_OF_PERICENTER":17.5981,"MEAN_ANOMALY":342.5551,"EPHEMERIS_TYPE":0,"NORAD_CAT_ID":69078,"ELEMENT_SET_NO":999,"REV_AT_EPOCH":860,"BSTAR":-3.0393116,"MEAN_MOTION_DOT":-0.01836687,"MEAN_MOTION_DDOT":0},{"OBJECT_NAME":"QIANFAN-133","OBJECT_ID":"2026-104G","EPOCH":"2026-07-13T10:43:55.469856","CLASSIFICATION_TYPE":"U","MEAN_MOTION":13.57837919,"ECCENTRICITY":0.0010001,"INCLINATION":88.9895,"RA_OF_ASC_NODE":338.8027,"ARG_OF_PERICENTER":14.7607,"MEAN_ANOMALY":345.3838,"EPHEMERIS_TYPE":0,"NORAD_CAT_ID":69079,"ELEMENT_SET_NO":999,"REV_AT_EPOCH":868,"BSTAR":-0.000012722,"MEAN_MOTION_DOT":3e-8,"MEAN_MOTION_DDOT":0},{"OBJECT_NAME":"QIANFAN-134","OBJECT_ID":"2026-104H","EPOCH":"2026-07-13T10:36:24.079104","CLASSIFICATION_TYPE":"U","MEAN_MOTION":13.57810232,"ECCENTRICITY":0.0010759,"INCLINATION":88.9896,"RA_OF_ASC_NODE":338.819,"ARG_OF_PERICENTER":10.9009,"MEAN_ANOMALY":349.2377,"EPHEMERIS_TYPE":0,"NORAD_CAT_ID":69080,"ELEMENT_SET_NO":999,"REV_AT_EPOCH":868,"BSTAR":0.000074862,"MEAN_MOTION_DOT":6.6e-7,"MEAN_MOTION_DDOT":0},{"OBJECT_NAME":"QIANFAN-135","OBJECT_ID":"2026-104J","EPOCH":"2026-07-12T21:18:26.862624","CLASSIFICATION_TYPE":"U","MEAN_MOTION":13.52979065,"ECCENTRICITY":0.00076856,"INCLINATION":88.9888,"RA_OF_ASC_NODE":338.8668,"ARG_OF_PERICENTER":54.9371,"MEAN_ANOMALY":305.2501,"EPHEMERIS_TYPE":0,"NORAD_CAT_ID":69081,"ELEMENT_SET_NO":999,"REV_AT_EPOCH":861,"BSTAR":-2.5277402,"MEAN_MOTION_DOT":-0.01586478,"MEAN_MOTION_DDOT":0},{"OBJECT_NAME":"QIANFAN-136","OBJECT_ID":"2026-104K","EPOCH":"2026-07-13T10:05:50.068032","CLASSIFICATION_TYPE":"U","MEAN_MOTION":13.57857593,"ECCENTRICITY":0.001143,"INCLINATION":88.9894,"RA_OF_ASC_NODE":338.8154,"ARG_OF_PERICENTER":14.7938,"MEAN_ANOMALY":345.3549,"EPHEMERIS_TYPE":0,"NORAD_CAT_ID":69082,"ELEMENT_SET_NO":999,"REV_AT_EPOCH":868,"BSTAR":0.000051016,"MEAN_MOTION_DOT":4.9e-7,"MEAN_MOTION_DDOT":0},{"OBJECT_NAME":"QIANFAN-137","OBJECT_ID":"2026-104L","EPOCH":"2026-07-12T21:24:50.948640","CLASSIFICATION_TYPE":"U","MEAN_MOTION":13.6415919,"ECCENTRICITY":0.00114701,"INCLINATION":88.9896,"RA_OF_ASC_NODE":338.7563,"ARG_OF_PERICENTER":15.7169,"MEAN_ANOMALY":344.4343,"EPHEMERIS_TYPE":0,"NORAD_CAT_ID":69083,"ELEMENT_SET_NO":999,"REV_AT_EPOCH":867,"BSTAR":-2.5969753,"MEAN_MOTION_DOT":-0.01943419,"MEAN_MOTION_DDOT":0},{"OBJECT_NAME":"QIANFAN-138","OBJECT_ID":"2026-104M","EPOCH":"2026-07-13T06:36:02.077920","CLASSIFICATION_TYPE":"U","MEAN_MOTION":13.57845214,"ECCENTRICITY":0.0008519,"INCLINATION":88.9887,"RA_OF_ASC_NODE":338.8303,"ARG_OF_PERICENTER":16.6259,"MEAN_ANOMALY":343.5173,"EPHEMERIS_TYPE":0,"NORAD_CAT_ID":69084,"ELEMENT_SET_NO":999,"REV_AT_EPOCH":866,"BSTAR":0.000071024,"MEAN_MOTION_DOT":6.3e-7,"MEAN_MOTION_DDOT":0}]}
